OSIRIS-3U               
1 43027U 98067NL  18354.60303961  .00104814  00000-0  51905-3 0  9996
2 43027  51.6341 137.6784 0002511 210.9083 149.1772 15.81208942 61723
AEROCUBE 7B             
1 43042U 17071F   18353.91312089  .00002309  00000-0  66853-4 0  9998
2 43042  51.6377 215.9483 0004520 211.3600 148.7115 15.40014557 58215
AEROCUBE 7C             
1 43043U 17071G   18353.91313537  .00002574  00000-0  73377-4 0  9991
2 43043  51.6380 215.9581 0004585 213.0321 147.0377 15.40011887 58180
CHEFSAT                 
1 43044U 17071H   18353.83393532  .00006121  00000-0  15196-3 0  9992
2 43044  51.6381 213.9908 0004517 209.5875 150.4855 15.41733956 58203
ASGARDIA 1              
1 43049U 17071N   18353.87925784  .00002460  00000-0  70287-4 0  9996
2 43049  51.6382 215.7466 0001938 225.9072 134.1753 15.40132977 58170
ISARA                   
1 43050U 17071P   18353.79921317  .00003673  00000-0  96100-4 0  9996
2 43050  51.6376 214.4879 0001834 215.9258 144.1604 15.41383763 58199
FAUNA                   
1 43052U 17071R   18353.84789062  .00002568  00000-0  72463-4 0  9991
2 43052  51.6384 215.5514 0001829 220.2612 139.8237 15.40331886 58174
CORVUS BC3              
1 43118U 18004H   18354.74329833  .00000766  00000-0  36079-4 0  9998
2 43118  97.5114  57.4871 0011229 154.7572 205.4215 15.22551380 52091
MICROMAS-2A             
1 43131U 18004W   18353.76094947  .00001560  00000-0  68421-4 0  9998
2 43131  97.5130  56.8443 0010206 160.0868 200.0769 15.23454184 51969
CICERO 7                
1 43143U 18004AJ  18353.74225744  .00001302  00000-0  57198-4 0  9993
2 43143  97.5123  57.0103 0008034 166.9433 193.2013 15.23718148 51978
GOMX4-B                 
1 43196U 18015E   18353.92693270 -.00000070  00000-0  60618-7 0  9992
2 43196  97.3675 119.3480 0017887 220.5608 139.4293 15.23761939 48810
GOMX4-A                 
1 43197U 18015F   18354.80220774  .00000424  00000-0  20482-4 0  9990
2 43197  97.3693 120.2163 0018026 218.2432 299.9176 15.23855173 48956
1KUNS-PF                
1 43466U 98067NP  18354.67167527  .00015810  00000-0  19695-3 0  9993
2 43466  51.6372 163.7946 0001155 141.0057 219.1020 15.60097049 34761
UBAKUSAT                
1 43467U 98067NQ  18354.68086241  .00010741  00000-0  14258-3 0  9996
2 43467  51.6368 164.6044 0003143 113.9132 246.2190 15.58814983 34767
BATSU-CS1 (IRAZU)       
1 43468U 98067NR  18354.60849403  .00019923  00000-0  23745-3 0  9998
2 43468  51.6368 163.3715 0001054 148.9267 211.1789 15.61073913134754
CUBERRT                 
1 43546U 98067NU  18353.75876080  .00005016  00000-0  70803-4 0  9997
2 43546  51.6370 171.1871 0006305 168.4338 191.6800 15.58533764 24726
TEMPEST-D               
1 43547U 98067NV  18354.74836346  .00004040  00000-0  63826-4 0  9992
2 43547  51.6373 167.2918 0006336 164.7660 195.3524 15.56021328 24549
RAINCUBE                
1 43548U 98067NW  18354.76463460  .00009435  00000-0  13328-3 0  9992
2 43548  51.6373 166.6522 0006275 176.6780 183.4254 15.57298287 25002
HALOSAT                 
1 43549U 98067NX  18353.73810620  .00006358  00000-0  92065-4 0  9990
2 43549  51.6378 171.7984 0006179 174.8406 185.2650 15.57295617 24402
ENDUROSAT ONE           
1 43551U 98067NZ  18354.65432084  .00012675  00000-0  17209-3 0  9994
2 43551  51.6368 166.6644 0006682 185.3139 174.7783 15.58002443 24964
EQUISAT                 
1 43552U 98067PA  18353.71028304  .00010184  00000-0  14190-3 0  9996
2 43552  51.6373 171.6120 0006955 181.5687 178.5284 15.57561124 24777
AEROCUBE 12A            
1 43556U 18046C   18353.79737675  .00001763  00000-0  76120-4 0  9990
2 43556  51.6414 203.9880 0008997 140.7221 219.4413 15.28122939 23894
AEROCUBE 12B            
1 43557U 18046D   18353.79998093  .00001602  00000-0  70480-4 0  9999
2 43557  51.6412 204.0043 0009023 140.9954 219.1677 15.28064241 23847
UITMSAT-1               
1 43589U 98067PD  18353.76274857  .00010602  00000-0  14918-3 0  9990
2 43589  51.6369 171.9578 0006277 189.3515 170.7361 15.57247514 20517
MAYA-1                  
1 43590U 98067PE  18354.65885408  .00011750  00000-0  16428-3 0  9994
2 43590  51.6369 167.4426 0006289 193.6579 166.4244 15.57297044 20584
BHUTAN-1                
1 43591U 98067PF  18353.75707672  .00010443  00000-0  14667-3 0  9992
2 43591  51.6371 171.9206 0006441 191.1683 168.9167 15.57316450 20442
SIRIUSSAT-1             
1 43595U 98067PG  18353.79648356  .00010012  00000-0  14360-3 0  9995
2 43595  51.6369 172.1790 0004399 146.2241 213.9032 15.56808966 19622
SIRIUSSAT-2             
1 43596U 98067PH  18353.74416336  .00009836  00000-0  14200-3 0  9997
2 43596  51.6380 172.5921 0005007 149.2111 210.9175 15.56652186 19617
TANUSHA-3               
1 43597U 98067PJ  18353.72521640  .00012277  00000-0  17228-3 0  9997
2 43597  51.6356 172.4406 0004494 160.4827 199.6338 15.57154390 19615
SURFSAT                 
1 43614U 18070B   18353.80702173  .00002648  00000-0  74011-4 0  9999
2 43614  93.0368 288.8832 0013829 286.6976  73.2758 15.36679739 14626
CP-7 (DAVE)             
1 43615U 18070C   18353.93719703  .00002467  00000-0  69000-4 0  9992
2 43615  93.0369 288.9379 0013867 285.7680  74.2043 15.36664546 14649
ELFIN-B                 
1 43616U 18070D   18353.79923969  .00003636  00000-0  10079-3 0  9998
2 43616  93.0337 288.8419 0015030 290.6461  69.3180 15.36894633 14622
ELFIN-A                 
1 43617U 18070E   18354.57856112  .00004070  00000-0  11269-3 0  9996
2 43617  93.0391 289.2396 0013932 282.8382  77.1314 15.36939519 14748
DEBRISSAT-1             
1 43621U 98067PM  18354.70075197  .00098148  00000-0  87656-3 0  9998
2 43621  51.6446 164.0368 0009670 190.6875 169.3955 15.67553382 14806
CUBEBEL-1 (BSUSAT-1)    
1 43666U 18083E   18354.78779225  .00001058  00000-0  56532-4 0  9992
2 43666  97.5355  15.3803 0016921  92.3588 353.7732 15.17196196  8009
DEBRISSAT-2             
1 43680U 98067PR  18353.97654273  .00010746  00000-0  15397-3 0  9990
2 43680  51.6380 171.1195 0003599 168.9752 191.1332 15.56746905 28395
CICERO 10               
1 43690U 18088A   18354.77355722  .00001216  00000-0  55548-4 0  9997
2 43690  85.0393  76.9202 0016844 141.0705 219.1752 15.19307115  6027
IRVINE01                
1 43693U 18088D   18353.68840252  .00001952  00000-0  86858-4 0  9991
2 43693  85.0373  77.5716 0020696 133.9757 226.3196 15.20586874  5857
PROXIMA I               
1 43694U 18088E   18353.93843065  .00000907  00000-0  38773-4 0  9997
2 43694  85.0338  77.3656 0021586 125.0161 235.3110 15.21057105  5903
PROXIMA II              
1 43696U 18088G   18353.93825736  .00000901  00000-0  38489-4 0  9992
2 43696  85.0338  77.3659 0021623 124.9735 235.3541 15.21062956  5891
FACSAT-1                
1 43721U 18096C   18354.80453052  .00001360  00000-0  56032-4 0  9999
2 43721  97.4829  59.8078 0016978 241.1546 118.7989 15.25757019  3300
CENTAURI-2              
1 43722U 18096D   18354.80343616  .00001714  00000-0  69674-4 0  9993
2 43722  97.4831  59.8095 0017106 242.1471 117.8034 15.25843007  3297
